[
  {
    "name": "ONEWEB-0309",
    "noradId": "49095",
    "line1": "1 49095U 21075W   26200.13408607 -.00000164  00000+0 -45480-3 0  9997",
    "line2": "2 49095  87.9153 359.5073 0002354  89.1122 271.0279 13.17648610237783"
  },
  {
    "name": "ONEWEB-0310",
    "noradId": "49096",
    "line1": "1 49096U 21075X   26199.95027178 -.00000025  00000+0 -10421-3 0  9998",
    "line2": "2 49096  87.8970 344.3633 0001874  98.4053 261.7288 13.12442237239359"
  },
  {
    "name": "ONEWEB-0311",
    "noradId": "49097",
    "line1": "1 49097U 21075Y   26199.98897265  .00000012  00000+0 -22326-5 0  9998",
    "line2": "2 49097  87.9149 359.5363 0001637  80.2887 279.8430 13.17648423237816"
  },
  {
    "name": "ONEWEB-0312",
    "noradId": "49098",
    "line1": "1 49098U 21075Z   26200.15603692  .00000042  00000+0  76021-4 0  9992",
    "line2": "2 49098  87.9145 359.5133 0001960  85.0239 275.1117 13.17648974237813"
  },
  {
    "name": "ONEWEB-0313",
    "noradId": "49099",
    "line1": "1 49099U 21075AA  26200.00907591 -.00000134  00000+0 -37767-3 0  9999",
    "line2": "2 49099  87.9149 359.5471 0001816  89.8774 270.2566 13.17649081237789"
  },
  {
    "name": "ONEWEB-0314",
    "noradId": "49100",
    "line1": "1 49100U 21075AB  26199.97546099 -.00000259  00000+0 -69954-3 0  9998",
    "line2": "2 49100  87.9158 359.5306 0002017  83.9315 276.2046 13.17649191237757"
  },
  {
    "name": "ONEWEB-0315",
    "noradId": "49101",
    "line1": "1 49101U 21075AC  26200.15188604  .00000415  00000+0  11177-2 0  9991",
    "line2": "2 49101  87.8975 344.2906 0001543  88.8030 271.3276 13.12443497239368"
  },
  {
    "name": "ONEWEB-0316",
    "noradId": "49102",
    "line1": "1 49102U 21075AD  26200.10295687  .00000023  00000+0  25286-4 0  9990",
    "line2": "2 49102  87.9193 329.1098 0001964  99.9797 260.1557 13.18685961241413"
  },
  {
    "name": "ONEWEB-0317",
    "noradId": "49103",
    "line1": "1 49103U 21075AE  26199.92656514  .00000363  00000+0  97340-3 0  9994",
    "line2": "2 49103  87.8970 344.3587 0002529 105.1561 254.9847 13.12442722239358"
  },
  {
    "name": "ONEWEB-0318",
    "noradId": "49104",
    "line1": "1 49104U 21075AF  26199.87181695  .00000036  00000+0  58973-4 0  9999",
    "line2": "2 49104  87.9198 329.1578 0001781  94.0055 266.1280 13.18686809241346"
  },
  {
    "name": "ONEWEB-0319",
    "noradId": "49105",
    "line1": "1 49105U 21075AG  26199.99065826  .00000007  00000+0 -14617-4 0  9996",
    "line2": "2 49105  87.9155 359.5401 0001318  88.5053 271.6229 13.17648329237796"
  },
  {
    "name": "ONEWEB-0323",
    "noradId": "49106",
    "line1": "1 49106U 21075AH  26199.90792267 -.00000051  00000+0 -17772-3 0  9998",
    "line2": "2 49106  87.8973 344.3445 0001546  81.9296 278.2008 13.12443724238711"
  },
  {
    "name": "ONEWEB-0329",
    "noradId": "49107",
    "line1": "1 49107U 21075AJ  26199.99908697  .00000038  00000+0  64191-4 0  9995",
    "line2": "2 49107  87.9152 359.5403 0001925  88.7791 271.3561 13.17648273237774"
  },
  {
    "name": "ONEWEB-0330",
    "noradId": "49108",
    "line1": "1 49108U 21075AK  26200.15447122 -.00000010  00000+0 -59205-4 0  9990",
    "line2": "2 49108  87.9152 359.5209 0001994  89.1195 271.0165 13.17646978237832"
  },
  {
    "name": "ONEWEB-0292",
    "noradId": "49186",
    "line1": "1 49186U 21083A   26200.23632436  .00000344  00000+0  90604-3 0  9993",
    "line2": "2 49186  87.8983 313.8601 0001792  98.9302 261.2030 13.13469977235133"
  },
  {
    "name": "ONEWEB-0303",
    "noradId": "49187",
    "line1": "1 49187U 21083B   26200.32370023  .00000105  00000+0  23323-3 0  9994",
    "line2": "2 49187  87.9198 329.0666 0001774  95.0798 265.0537 13.18684537234218"
  },
  {
    "name": "ONEWEB-0306",
    "noradId": "49188",
    "line1": "1 49188U 21083C   26200.31359155  .00000058  00000+0  11413-3 0  9991",
    "line2": "2 49188  87.9198 329.0579 0002106 101.4295 258.7074 13.18685120234254"
  },
  {
    "name": "ONEWEB-0307",
    "noradId": "49189",
    "line1": "1 49189U 21083D   26200.30657482  .00000397  00000+0  10523-2 0  9991",
    "line2": "2 49189  87.8982 313.8439 0001892  97.3328 262.8016 13.13468855235142"
  },
  {
    "name": "ONEWEB-0320",
    "noradId": "49190",
    "line1": "1 49190U 21083E   26200.10617782 -.00000184  00000+0 -50050-3 0  9996",
    "line2": "2 49190  87.9190 329.1134 0001948 100.2339 259.9013 13.18685857234181"
  },
  {
    "name": "ONEWEB-0321",
    "noradId": "49191",
    "line1": "1 49191U 21083F   26200.17040507 -.00000127  00000+0 -34327-3 0  9995",
    "line2": "2 49191  87.9179 268.0614 0002151 103.4099 256.7275 13.20771640241056"
  },
  {
    "name": "ONEWEB-0322",
    "noradId": "49192",
    "line1": "1 49192U 21083G   26200.30235125  .00000377  00000+0  99703-3 0  9997",
    "line2": "2 49192  87.8980 313.8444 0002116 111.8175 248.3180 13.13470818235134"
  },
  {
    "name": "ONEWEB-0324",
    "noradId": "49193",
    "line1": "1 49193U 21083H   26200.30684600  .00000068  00000+0  13955-3 0  9996",
    "line2": "2 49193  87.9206 329.0645 0002054  95.4629 264.6737 13.18686872234234"
  },
  {
    "name": "ONEWEB-0325",
    "noradId": "49194",
    "line1": "1 49194U 21083J   26200.31020688  .00000055  00000+0  10563-3 0  9996",
    "line2": "2 49194  87.9192 329.0690 0001834 100.4950 259.6389 13.18687536234244"
  },
  {
    "name": "ONEWEB-0326",
    "noradId": "49195",
    "line1": "1 49195U 21083K   26200.32554137  .00000156  00000+0  36419-3 0  9999",
    "line2": "2 49195  87.9200 329.0662 0001628  95.8555 264.2763 13.18686093234237"
  },
  {
    "name": "ONEWEB-0327",
    "noradId": "49196",
    "line1": "1 49196U 21083L   26200.32526204  .00000082  00000+0  17506-3 0  9998",
    "line2": "2 49196  87.9190 329.0682 0001468  98.6703 261.4595 13.18685911234258"
  },
  {
    "name": "ONEWEB-0328",
    "noradId": "49197",
    "line1": "1 49197U 21083M   26200.29219308  .00000228  00000+0  59036-3 0  9995",
    "line2": "2 49197  87.8989 313.8229 0002036  96.6638 263.4723 13.13470493235112"
  },
  {
    "name": "ONEWEB-0331",
    "noradId": "49198",
    "line1": "1 49198U 21083N   26199.86338959  .00000154  00000+0  35737-3 0  9990",
    "line2": "2 49198  87.9200 329.1523 0001656  90.4931 269.6391 13.18685468234182"
  },
  {
    "name": "ONEWEB-0333",
    "noradId": "49199",
    "line1": "1 49199U 21083P   26200.28711275  .00000064  00000+0  13949-3 0  9997",
    "line2": "2 49199  87.8981 313.8472 0001887 101.2618 258.8723 13.13470491235127"
  },
  {
    "name": "ONEWEB-0334",
    "noradId": "49200",
    "line1": "1 49200U 21083Q   26200.18471138  .00000030  00000+0  41071-4 0  9991",
    "line2": "2 49200  87.9181 268.0693 0002563 115.2505 244.8894 13.20769731241016"
  },
  {
    "name": "ONEWEB-0335",
    "noradId": "49201",
    "line1": "1 49201U 21083R   26200.28203303 -.00000009  00000+0 -58772-4 0  9994",
    "line2": "2 49201  87.8980 313.8458 0001826  96.0486 264.0851 13.13469880235133"
  }
]