OBJECT_NAME,OBJECT_ID,EPOCH,MEAN_MOTION,ECCENTRICITY,INCLINATION,RA_OF_ASC_NODE,ARG_OF_PERICENTER,MEAN_ANOMALY,EPHEMERIS_TYPE,CLASSIFICATION_TYPE,NORAD_CAT_ID,ELEMENT_SET_NO,REV_AT_EPOCH,BSTAR,MEAN_MOTION_DOT,MEAN_MOTION_DDOT
ONEWEB-0309,2021-075W,2026-07-19T03:13:05.036448,13.17648610,.00023541,87.9153,359.5073,89.1122,271.0279,0,U,49095,999,23778,-.45480018E-3,-.164E-5,0
ONEWEB-0310,2021-075X,2026-07-18T22:48:23.481792,13.12442237,.00018746,87.8970,344.3633,98.4053,261.7288,0,U,49096,999,23935,-.10420714E-3,-.25E-6,0
ONEWEB-0311,2021-075Y,2026-07-18T23:44:07.236960,13.17648423,.00016379,87.9149,359.5363,80.2887,279.8430,0,U,49097,999,23781,-.2232572E-5,.12E-6,0
ONEWEB-0312,2021-075Z,2026-07-19T03:44:41.589888,13.17648974,.00019608,87.9145,359.5133,85.0239,275.1117,0,U,49098,999,23781,.76021354E-4,.42E-6,0
ONEWEB-0313,2021-075AA,2026-07-19T00:13:04.158624,13.17649081,.00018161,87.9149,359.5471,89.8774,270.2566,0,U,49099,999,23778,-.37766647E-3,-.134E-5,0
ONEWEB-0314,2021-075AB,2026-07-18T23:24:39.829536,13.17649191,.00020175,87.9158,359.5306,83.9315,276.2046,0,U,49100,999,23775,-.69953697E-3,-.259E-5,0
ONEWEB-0315,2021-075AC,2026-07-19T03:38:42.953856,13.12443497,.00015439,87.8975,344.2906,88.8030,271.3276,0,U,49101,999,23936,.11176816E-2,.415E-5,0
ONEWEB-0316,2021-075AD,2026-07-19T02:28:15.473568,13.18685961,.00019643,87.9193,329.1098,99.9797,260.1557,0,U,49102,999,24141,.25286449E-4,.23E-6,0
ONEWEB-0317,2021-075AE,2026-07-18T22:14:15.228096,13.12442722,.00025298,87.8970,344.3587,105.1561,254.9847,0,U,49103,999,23935,.97340422E-3,.363E-5,0
ONEWEB-0318,2021-075AF,2026-07-18T20:55:24.984480,13.18686809,.0001781,87.9198,329.1578,94.0055,266.1280,0,U,49104,999,24134,.5897278E-4,.36E-6,0
ONEWEB-0319,2021-075AG,2026-07-18T23:46:32.873664,13.17648329,.00013182,87.9155,359.5401,88.5053,271.6229,0,U,49105,999,23779,-.14617107E-4,.7E-7,0
ONEWEB-0323,2021-075AH,2026-07-18T21:47:24.518688,13.12443724,.00015464,87.8973,344.3445,81.9296,278.2008,0,U,49106,999,23871,-.17771792E-3,-.51E-6,0
ONEWEB-0329,2021-075AJ,2026-07-18T23:58:41.114208,13.17648273,.0001925,87.9152,359.5403,88.7791,271.3561,0,U,49107,999,23777,.64191488E-4,.38E-6,0
ONEWEB-0330,2021-075AK,2026-07-19T03:42:26.313408,13.17646978,.00019949,87.9152,359.5209,89.1195,271.0165,0,U,49108,999,23783,-.59205003E-4,-.1E-6,0
ONEWEB-0292,2021-083A,2026-07-19T05:40:18.424704,13.13469977,.00017926,87.8983,313.8601,98.9302,261.2030,0,U,49186,999,23513,.90603866E-3,.344E-5,0
ONEWEB-0303,2021-083B,2026-07-19T07:46:07.699872,13.18684537,.00017744,87.9198,329.0666,95.0798,265.0537,0,U,49187,999,23421,.2332255E-3,.105E-5,0
ONEWEB-0306,2021-083C,2026-07-19T07:31:34.309920,13.18685120,.00021065,87.9198,329.0579,101.4295,258.7074,0,U,49188,999,23425,.11412623E-3,.58E-6,0
ONEWEB-0307,2021-083D,2026-07-19T07:21:28.064448,13.13468855,.00018925,87.8982,313.8439,97.3328,262.8016,0,U,49189,999,23514,.10523266E-2,.397E-5,0
ONEWEB-0320,2021-083E,2026-07-19T02:32:53.763648,13.18685857,.00019488,87.9190,329.1134,100.2339,259.9013,0,U,49190,999,23418,-.50049515E-3,-.184E-5,0
ONEWEB-0321,2021-083F,2026-07-19T04:05:22.998048,13.20771640,.00021515,87.9179,268.0614,103.4099,256.7275,0,U,49191,999,24105,-.34326669E-3,-.127E-5,0
ONEWEB-0322,2021-083G,2026-07-19T07:15:23.148000,13.13470818,.00021162,87.8980,313.8444,111.8175,248.3180,0,U,49192,999,23513,.99702728E-3,.377E-5,0
ONEWEB-0324,2021-083H,2026-07-19T07:21:51.494400,13.18686872,.00020546,87.9206,329.0645,95.4629,264.6737,0,U,49193,999,23423,.13954632E-3,.68E-6,0
ONEWEB-0325,2021-083J,2026-07-19T07:26:41.874432,13.18687536,.00018341,87.9192,329.0690,100.4950,259.6389,0,U,49194,999,23424,.1056334E-3,.55E-6,0
ONEWEB-0326,2021-083K,2026-07-19T07:48:46.774368,13.18686093,.0001628,87.9200,329.0662,95.8555,264.2763,0,U,49195,999,23423,.36418782E-3,.156E-5,0
ONEWEB-0327,2021-083L,2026-07-19T07:48:22.640256,13.18685911,.00014688,87.9190,329.0682,98.6703,261.4595,0,U,49196,999,23425,.17505984E-3,.82E-6,0
ONEWEB-0328,2021-083M,2026-07-19T07:00:45.482112,13.13470493,.00020364,87.8989,313.8229,96.6638,263.4723,0,U,49197,999,23511,.59035698E-3,.228E-5,0
ONEWEB-0331,2021-083N,2026-07-18T20:43:16.860576,13.18685468,.00016566,87.9200,329.1523,90.4931,269.6391,0,U,49198,999,23418,.3573658E-3,.154E-5,0
ONEWEB-0333,2021-083P,2026-07-19T06:53:26.541600,13.13470491,.0001887,87.8981,313.8472,101.2618,258.8723,0,U,49199,999,23512,.13948671E-3,.64E-6,0
ONEWEB-0334,2021-083Q,2026-07-19T04:25:59.063232,13.20769731,.00025635,87.9181,268.0693,115.2505,244.8894,0,U,49200,999,24101,.41070729E-4,.3E-6,0
ONEWEB-0335,2021-083R,2026-07-19T06:46:07.653792,13.13469880,.00018267,87.8980,313.8458,96.0486,264.0851,0,U,49201,999,23513,-.58771962E-4,-.9E-7,0
